ORBCOMM FM115           
1 41186U 15081H   25240.12111253  .00000895  00000+0  20873-3 0  9998
2 41186  46.9989  57.4112 0000513 350.7938   9.2940 14.62605194518300
ORBCOMM FM108           
1 41187U 15081J   25240.04563730  .00001132  00000+0  27922-3 0  9998
2 41187  47.0046 127.5926 0002904 287.9395  72.1174 14.58258743517286
ORBCOMM FM117           
1 41188U 15081K   25240.08034945  .00001093  00000+0  27088-3 0  9993
2 41188  47.0008 126.1664 0003485 296.5326  63.5202 14.58255554517333
ORBCOMM FM116           
1 41189U 15081L   25240.40846881  .00000684  00000+0  18271-3 0  9999
2 41189  47.0009 214.4355 0000952 166.7393 193.3518 14.58331638516194
